CCSDS_OMM_VERS = 2.0
CREATION_DATE  = 
ORIGINATOR     = 

OBJECT_NAME    = ISS (ZARYA)
OBJECT_ID      = 1998-067A
CENTER_NAME    = EARTH
REF_FRAME      = TEME
TIME_SYSTEM    = UTC
MEAN_ELEMENT_THEORY = SGP/SGP4

EPOCH          = 2026-01-23T17:19:58.588032
MEAN_MOTION    = 15.49596283
ECCENTRICITY   = .00077762
INCLINATION    = 51.6325
RA_OF_ASC_NODE = 294.6353
ARG_OF_PERICENTER = 51.0046
MEAN_ANOMALY   = 309.1634

EPHEMERIS_TYPE = 0
CLASSIFICATION_TYPE = U
NORAD_CAT_ID   = 25544
ELEMENT_SET_NO = 999
REV_AT_EPOCH   = 54936
BSTAR          = .30359733E-3
MEAN_MOTION_DOT = .16677E-3
MEAN_MOTION_DDOT = 0

CCSDS_OMM_VERS = 2.0
CREATION_DATE  = 
ORIGINATOR     = 

OBJECT_NAME    = CSS (TIANHE)
OBJECT_ID      = 2021-035A
CENTER_NAME    = EARTH
REF_FRAME      = TEME
TIME_SYSTEM    = UTC
MEAN_ELEMENT_THEORY = SGP/SGP4

EPOCH          = 2026-01-23T21:38:44.406240
MEAN_MOTION    = 15.60968307
ECCENTRICITY   = .00101799
INCLINATION    = 41.4667
RA_OF_ASC_NODE = 120.4029
ARG_OF_PERICENTER = 347.3565
MEAN_ANOMALY   = 12.7018

EPHEMERIS_TYPE = 0
CLASSIFICATION_TYPE = U
NORAD_CAT_ID   = 48274
ELEMENT_SET_NO = 999
REV_AT_EPOCH   = 27061
BSTAR          = .33398405E-3
MEAN_MOTION_DOT = .28661E-3
MEAN_MOTION_DDOT = 0

CCSDS_OMM_VERS = 2.0
CREATION_DATE  = 
ORIGINATOR     = 

OBJECT_NAME    = ISS (NAUKA)
OBJECT_ID      = 2021-066A
CENTER_NAME    = EARTH
REF_FRAME      = TEME
TIME_SYSTEM    = UTC
MEAN_ELEMENT_THEORY = SGP/SGP4

EPOCH          = 2026-01-23T17:19:58.588032
MEAN_MOTION    = 15.49596283
ECCENTRICITY   = .00077762
INCLINATION    = 51.6325
RA_OF_ASC_NODE = 294.6353
ARG_OF_PERICENTER = 51.0046
MEAN_ANOMALY   = 309.1634

EPHEMERIS_TYPE = 0
CLASSIFICATION_TYPE = U
NORAD_CAT_ID   = 49044
ELEMENT_SET_NO = 999
REV_AT_EPOCH   = 23044
BSTAR          = .30359733E-3
MEAN_MOTION_DOT = .16677E-3
MEAN_MOTION_DDOT = 0

CCSDS_OMM_VERS = 2.0
CREATION_DATE  = 
ORIGINATOR     = 

OBJECT_NAME    = CSS (WENTIAN)
OBJECT_ID      = 2022-085A
CENTER_NAME    = EARTH
REF_FRAME      = TEME
TIME_SYSTEM    = UTC
MEAN_ELEMENT_THEORY = SGP/SGP4

EPOCH          = 2026-01-23T21:38:44.406240
MEAN_MOTION    = 15.60968307
ECCENTRICITY   = .00101799
INCLINATION    = 41.4667
RA_OF_ASC_NODE = 120.4029
ARG_OF_PERICENTER = 347.3565
MEAN_ANOMALY   = 12.7018

EPHEMERIS_TYPE = 0
CLASSIFICATION_TYPE = U
NORAD_CAT_ID   = 53239
ELEMENT_SET_NO = 999
REV_AT_EPOCH   = 17384
BSTAR          = .33398405E-3
MEAN_MOTION_DOT = .28661E-3
MEAN_MOTION_DDOT = 0

CCSDS_OMM_VERS = 2.0
CREATION_DATE  = 
ORIGINATOR     = 

OBJECT_NAME    = CSS (MENGTIAN)
OBJECT_ID      = 2022-143A
CENTER_NAME    = EARTH
REF_FRAME      = TEME
TIME_SYSTEM    = UTC
MEAN_ELEMENT_THEORY = SGP/SGP4

EPOCH          = 2026-01-23T21:38:44.406240
MEAN_MOTION    = 15.60968307
ECCENTRICITY   = .00101799
INCLINATION    = 41.4667
RA_OF_ASC_NODE = 120.4029
ARG_OF_PERICENTER = 347.3565
MEAN_ANOMALY   = 12.7018

EPHEMERIS_TYPE = 0
CLASSIFICATION_TYPE = U
NORAD_CAT_ID   = 54216
ELEMENT_SET_NO = 999
REV_AT_EPOCH   = 15864
BSTAR          = .33398405E-3
MEAN_MOTION_DOT = .28661E-3
MEAN_MOTION_DDOT = 0

CCSDS_OMM_VERS = 2.0
CREATION_DATE  = 
ORIGINATOR     = 

OBJECT_NAME    = PROGRESS-MS 31
OBJECT_ID      = 2025-146A
CENTER_NAME    = EARTH
REF_FRAME      = TEME
TIME_SYSTEM    = UTC
MEAN_ELEMENT_THEORY = SGP/SGP4

EPOCH          = 2026-01-23T17:19:58.588032
MEAN_MOTION    = 15.49596283
ECCENTRICITY   = .00077762
INCLINATION    = 51.6325
RA_OF_ASC_NODE = 294.6353
ARG_OF_PERICENTER = 51.0046
MEAN_ANOMALY   = 309.1634

EPHEMERIS_TYPE = 0
CLASSIFICATION_TYPE = U
NORAD_CAT_ID   = 64751
ELEMENT_SET_NO = 999
REV_AT_EPOCH   = 675
BSTAR          = .30359733E-3
MEAN_MOTION_DOT = .16677E-3
MEAN_MOTION_DDOT = 0

CCSDS_OMM_VERS = 2.0
CREATION_DATE  = 
ORIGINATOR     = 

OBJECT_NAME    = TIANZHOU-9
OBJECT_ID      = 2025-149A
CENTER_NAME    = EARTH
REF_FRAME      = TEME
TIME_SYSTEM    = UTC
MEAN_ELEMENT_THEORY = SGP/SGP4

EPOCH          = 2026-01-23T21:38:44.406240
MEAN_MOTION    = 15.60968307
ECCENTRICITY   = .00101799
INCLINATION    = 41.4667
RA_OF_ASC_NODE = 120.4029
ARG_OF_PERICENTER = 347.3565
MEAN_ANOMALY   = 12.7018

EPHEMERIS_TYPE = 0
CLASSIFICATION_TYPE = U
NORAD_CAT_ID   = 64786
ELEMENT_SET_NO = 999
REV_AT_EPOCH   = 25530
BSTAR          = .33398405E-3
MEAN_MOTION_DOT = .28661E-3
MEAN_MOTION_DDOT = 0

CCSDS_OMM_VERS = 2.0
CREATION_DATE  = 
ORIGINATOR     = 

OBJECT_NAME    = DRAGON CRS-33
OBJECT_ID      = 2025-186A
CENTER_NAME    = EARTH
REF_FRAME      = TEME
TIME_SYSTEM    = UTC
MEAN_ELEMENT_THEORY = SGP/SGP4

EPOCH          = 2026-01-23T17:19:58.588032
MEAN_MOTION    = 15.49596283
ECCENTRICITY   = .00077762
INCLINATION    = 51.6325
RA_OF_ASC_NODE = 294.6353
ARG_OF_PERICENTER = 51.0046
MEAN_ANOMALY   = 309.1634

EPHEMERIS_TYPE = 0
CLASSIFICATION_TYPE = U
NORAD_CAT_ID   = 65304
ELEMENT_SET_NO = 999
REV_AT_EPOCH   = 11
BSTAR          = .30359733E-3
MEAN_MOTION_DOT = .16677E-3
MEAN_MOTION_DDOT = 0

CCSDS_OMM_VERS = 2.0
CREATION_DATE  = 
ORIGINATOR     = 

OBJECT_NAME    = PROGRESS-MS 32
OBJECT_ID      = 2025-204A
CENTER_NAME    = EARTH
REF_FRAME      = TEME
TIME_SYSTEM    = UTC
MEAN_ELEMENT_THEORY = SGP/SGP4

EPOCH          = 2026-01-23T17:19:58.588032
MEAN_MOTION    = 15.49596283
ECCENTRICITY   = .00077762
INCLINATION    = 51.6325
RA_OF_ASC_NODE = 294.6353
ARG_OF_PERICENTER = 51.0046
MEAN_ANOMALY   = 309.1634

EPHEMERIS_TYPE = 0
CLASSIFICATION_TYPE = U
NORAD_CAT_ID   = 65586
ELEMENT_SET_NO = 999
REV_AT_EPOCH   = 27
BSTAR          = .30359733E-3
MEAN_MOTION_DOT = .16677E-3
MEAN_MOTION_DDOT = 0

CCSDS_OMM_VERS = 2.0
CREATION_DATE  = 
ORIGINATOR     = 

OBJECT_NAME    = CYGNUS NG-23
OBJECT_ID      = 2025-208A
CENTER_NAME    = EARTH
REF_FRAME      = TEME
TIME_SYSTEM    = UTC
MEAN_ELEMENT_THEORY = SGP/SGP4

EPOCH          = 2026-01-23T17:19:58.588032
MEAN_MOTION    = 15.49596283
ECCENTRICITY   = .00077762
INCLINATION    = 51.6325
RA_OF_ASC_NODE = 294.6353
ARG_OF_PERICENTER = 51.0046
MEAN_ANOMALY   = 309.1634

EPHEMERIS_TYPE = 0
CLASSIFICATION_TYPE = U
NORAD_CAT_ID   = 65616
ELEMENT_SET_NO = 999
REV_AT_EPOCH   = 22
BSTAR          = .30359733E-3
MEAN_MOTION_DOT = .16677E-3
MEAN_MOTION_DDOT = 0

CCSDS_OMM_VERS = 2.0
CREATION_DATE  = 
ORIGINATOR     = 

OBJECT_NAME    = DRAGONFLY
OBJECT_ID      = 1998-067XH
CENTER_NAME    = EARTH
REF_FRAME      = TEME
TIME_SYSTEM    = UTC
MEAN_ELEMENT_THEORY = SGP/SGP4

EPOCH          = 2026-01-23T23:38:57.069600
MEAN_MOTION    = 16.01353071
ECCENTRICITY   = .00075502
INCLINATION    = 51.6137
RA_OF_ASC_NODE = 276.0104
ARG_OF_PERICENTER = 182.6666
MEAN_ANOMALY   = 177.4305

EPHEMERIS_TYPE = 0
CLASSIFICATION_TYPE = U
NORAD_CAT_ID   = 65729
ELEMENT_SET_NO = 999
REV_AT_EPOCH   = 1985
BSTAR          = .18397333E-2
MEAN_MOTION_DOT = .1040617E-1
MEAN_MOTION_DDOT = .55703172E-3

